{
  "type": "FeatureCollection",
  "name": "fault_sources",
  "crs": {
    "type": "name",
    "properties": {
      "name": "urn:ogc:def:crs:OGC:1.3:CRS84"
    }
  },
  "features": [
    {
      "type": "Feature",
      "properties": {
        "src_id": 1,
        "name": "Alpha Fault",
        "dip": 90.0,
        "dip_dir": "N",
        "upper_depth": 0.0,
        "width_km": 14.0,
        "rake": 0.0,
        "mfd_json": "[{\"type\":\"GR\",\"a\":2.5,\"b\":0.9,\"m_min\":5.0,\"m_max\":7.4,\"d_mag\":0.2,\"weight\":1.0}]"
      },
      "geometry": {
        "type": "LineString",
        "coordinates": [[-122.5, 38.3], [-121.5, 38.3]]
      }
    },
    {
      "type": "Feature",
      "properties": {
        "src_id": 2,
        "name": "Beta Fault",
        "dip": 50.0,
        "dip_dir": "N",
        "upper_depth": 0.0,
        "width_km": 18.0,
        "rake": 90.0,
        "mfd_json": "[{\"type\":\"GR\",\"a\":1.8,\"b\":0.85,\"m_min\":5.0,\"m_max\":7.0,\"d_mag\":0.2,\"weight\":0.3},{\"type\":\"SINGLE\",\"m\":7.0,\"rate\":0.001,\"weight\":0.2}]"
      },
      "geometry": {
        "type": "LineString",
        "coordinates": [[-122.3, 37.8], [-121.7, 37.8]]
      }
    },
    {
      "type": "Feature",
      "properties": {
        "src_id": 3,
        "name": "Alpha Fault Zone",
        "dip": 90.0,
        "dip_dir": "N",
        "upper_depth": 0.0,
        "width_km": 14.0,
        "rake": 0.0,
        "mfd_json": "[{\"type\":\"GR\",\"a\":2.5,\"b\":0.9,\"m_min\":5.0,\"m_max\":7.4,\"d_mag\":0.2,\"weight\":1.0}]"
      },
      "geometry": {
        "type": "LineString",
        "coordinates": [[-122.5, 38.3], [-121.5, 38.3]]
      }
    }
  ]
}
