{
  "type": "FeatureCollection",
  "features": [
    {"type":"Feature","id":"ws-001","geometry":{"type":"Point","coordinates":[-73.9857,40.7484]},"properties":{"name":"NYC Central Park","country":"US","elevation_m":47.5,"datetime":"2024-03-15T12:00:00Z"}},
    {"type":"Feature","id":"ws-002","geometry":{"type":"Point","coordinates":[-0.1278,51.5074]},"properties":{"name":"London Heathrow","country":"GB","elevation_m":25.0,"datetime":"2024-03-15T14:00:00Z"}},
    {"type":"Feature","id":"ws-003","geometry":{"type":"Point","coordinates":[35.6895,139.6917]},"properties":{"name":"Tokyo Haneda","country":"JP","elevation_m":6.0,"datetime":"2024-03-16T02:00:00Z"}},
    {"type":"Feature","id":"ws-004","geometry":{"type":"Point","coordinates":[151.2093,-33.8688]},"properties":{"name":"Sydney Observatory","country":"AU","elevation_m":39.0,"datetime":"2024-03-16T08:00:00Z"}},
    {"type":"Feature","id":"ws-005","geometry":{"type":"Point","coordinates":[-46.6333,-23.5505]},"properties":{"name":"Sao Paulo Congonhas","country":"BR","elevation_m":802.0,"datetime":"2024-03-15T09:00:00Z"}},
    {"type":"Feature","id":"ws-006","geometry":{"type":"Point","coordinates":[72.8777,19.076]},"properties":{"name":"Mumbai Colaba","country":"IN","elevation_m":11.0,"datetime":"2024-03-16T05:30:00Z"}},
    {"type":"Feature","id":"ws-007","geometry":{"type":"Point","coordinates":[31.2357,30.0444]},"properties":{"name":"Cairo Airport","country":"EG","elevation_m":74.0,"datetime":"2024-03-15T16:00:00Z"}},
    {"type":"Feature","id":"ws-008","geometry":{"type":"Point","coordinates":[37.6173,55.7558]},"properties":{"name":"Moscow Sheremetyevo","country":"RU","elevation_m":190.0,"datetime":"2024-03-15T18:00:00Z"}},
    {"type":"Feature","id":"ws-009","geometry":{"type":"Point","coordinates":[-118.2437,34.0522]},"properties":{"name":"Los Angeles LAX","country":"US","elevation_m":38.0,"datetime":"2024-03-15T08:00:00Z"}},
    {"type":"Feature","id":"ws-010","geometry":{"type":"Point","coordinates":[18.4241,-33.9249]},"properties":{"name":"Cape Town Intl","country":"ZA","elevation_m":46.0,"datetime":"2024-03-16T10:00:00Z"}},
    {"type":"Feature","id":"ws-011","geometry":{"type":"Point","coordinates":[174.7633,-36.8485]},"properties":{"name":"Auckland Airport","country":"NZ","elevation_m":7.0,"datetime":"2024-03-16T12:00:00Z"}},
    {"type":"Feature","id":"ws-012","geometry":{"type":"Point","coordinates":[-21.8174,64.1466]},"properties":{"name":"Reykjavik Keflavik","country":"IS","elevation_m":52.0,"datetime":"2024-03-15T11:00:00Z"}},
    {"type":"Feature","id":"ws-013","geometry":{"type":"Point","coordinates":[103.8198,1.3521]},"properties":{"name":"Singapore Changi","country":"SG","elevation_m":16.0,"datetime":"2024-03-16T04:00:00Z"}},
    {"type":"Feature","id":"ws-014","geometry":{"type":"Point","coordinates":[-58.3816,-34.6037]},"properties":{"name":"Buenos Aires Ezeiza","country":"AR","elevation_m":20.0,"datetime":"2024-03-15T10:00:00Z"}},
    {"type":"Feature","id":"ws-015","geometry":{"type":"Point","coordinates":[-149.9003,61.2181]},"properties":{"name":"Anchorage Intl","country":"US","elevation_m":46.0,"datetime":"2024-03-15T07:00:00Z"}}
  ]
}
