1 52140U 22024A   24111.00000000  .00012345  00000+0  12345-3 0  9993
2 52140  51.6421 234.5678 0000123 123.4567  45.6789 15.55787992100000
1 52140U 22024A   24111.35126496  .00012345  00000+0  12345-3 0 10003
2 52140  51.6421 235.0678 0000123 123.4567 182.9789 15.55794939100033
1 52140U 22024A   24111.66116862  .00012345  00000+0  12345-3 0 10014
2 52140  51.6421 235.5678 0000123 123.4567 320.2789 15.55801317100067
1 52140U 22024A   24111.95342529  .00012345  00000+0  12345-3 0 10028
2 52140  51.6421 236.0678 0000123 123.4567  97.5789 15.55814069100098
1 52140U 22024A   24112.33432467  .00012345  00000+0  12345-3 0 10033
2 52140  51.6421 236.5678 0000123 123.4567 234.8789 15.55810433100124
1 52140U 22024A   24112.73852234  .00012345  00000+0  12345-3 0 10046
2 52140  51.6421 237.0678 0000123 123.4567  12.1789 15.55819545100153
1 52140U 22024A   24113.06613602  .00012345  00000+0  12345-3 0 10058
2 52140  51.6421 237.5678 0000123 123.4567 149.4789 15.55830516100186
1 52140U 22024A   24113.39229953  .00012345  00000+0  12345-3 0 10067
2 52140  51.6421 238.0678 0000123 123.4567 286.7789 15.55836934100211
1 52140U 22024A   24113.71112482  .00012345  00000+0  12345-3 0 10072
2 52140  51.6421 238.5678 0000123 123.4567  64.0789 15.55839309100245
1 52140U 22024A   24114.09517171  .00012345  00000+0  12345-3 0 10089
2 52140  51.6421 239.0678 0000123 123.4567 201.3789 15.55860309100274
1 52140U 22024A   24114.39751344  .00012345  00000+0  12345-3 0 10095
2 52140  51.6421 239.5678 0000123 123.4567 338.6789 15.55882731100300
1 52140U 22024A   24114.73528790  .00012345  00000+0  12345-3 0 10102
2 52140  51.6421 240.0678 0000123 123.4567 115.9789 15.55894453100330
1 52140U 22024A   24114.99526258  .00012345  00000+0  12345-3 0 10118
2 52140  51.6421 240.5678 0000123 123.4567 253.2789 15.55891641100360
1 52140U 22024A   24115.35265353  .00012345  00000+0  12345-3 0 10126
2 52140  51.6421 241.0678 0000123 123.4567  30.5789 15.55903571100391
1 52140U 22024A   24115.71359611  .00012345  00000+0  12345-3 0 10138
2 52140  51.6421 241.5678 0000123 123.4567 167.8789 15.55894341100428
1 52140U 22024A   24116.11707424  .00012345  00000+0  12345-3 0 10143
2 52140  51.6421 242.0678 0000123 123.4567 305.1789 15.55891923100457
1 52140U 22024A   24116.47118722  .00012345  00000+0  12345-3 0 10150
2 52140  51.6421 242.5678 0000123 123.4567  82.4789 15.55916343100484
1 52140U 22024A   24116.74719488  .00012345  00000+0  12345-3 0 10167
2 52140  51.6421 243.0678 0000123 123.4567 219.7789 15.55922401100511
1 52140U 22024A   24117.01862477  .00012345  00000+0  12345-3 0 10176
2 52140  51.6421 243.5678 0000123 123.4567 357.0789 15.55923737100548
1 52140U 22024A   24117.38938948  .00012345  00000+0  12345-3 0 10184
2 52140  51.6421 244.0678 0000123 123.4567 134.3789 15.55944810100578
1 52140U 22024A   24117.68965434  .00012345  00000+0  12345-3 0 10198
2 52140  51.6421 244.5678 0000123 123.4567 271.6789 15.55943951100607
1 52140U 22024A   24118.05754807  .00012345  00000+0  12345-3 0 10202
2 52140  51.6421 245.0678 0000123 123.4567  48.9789 15.55956204100636
1 52140U 22024A   24118.45247907  .00012345  00000+0  12345-3 0 10215
2 52140  51.6421 245.5678 0000123 123.4567 186.2789 15.55969093100660
1 52140U 22024A   24118.84825040  .00012345  00000+0  12345-3 0 10229
2 52140  51.6421 246.0678 0000123 123.4567 323.5789 15.55980117100695
1 52140U 22024A   24119.15576021  .00012345  00000+0  12345-3 0 10237
2 52140  51.6421 246.5678 0000123 123.4567 100.8789 15.55987763100724
1 52140U 22024A   24119.44425746  .00012345  00000+0  12345-3 0 10247
2 52140  51.6421 247.0678 0000123 123.4567 238.1789 15.55987374100756
1 52140U 22024A   24119.78134713  .00012345  00000+0  12345-3 0 10256
2 52140  51.6421 247.5678 0000123 123.4567  15.4789 15.55986868100787
1 52140U 22024A   24120.17297476  .00012345  00000+0  12345-3 0 10268
2 52140  51.6421 248.0678 0000123 123.4567 152.7789 15.55991499100818
1 52140U 22024A   24120.57621010  .00012345  00000+0  12345-3 0 10278
2 52140  51.6421 248.5678 0000123 123.4567 290.0789 15.56004009100845
1 52140U 22024A   24120.86905307  .00012345  00000+0  12345-3 0 10285
2 52140  51.6421 249.0678 0000123 123.4567  67.3789 15.56016599100876
1 52140U 22024A   24121.12074248  .00012345  00000+0  12345-3 0 10297
2 52140  51.6421 249.5678 0000123 123.4567 204.6789 15.56011523100903
1 52140U 22024A   24121.52192616  .00012345  00000+0  12345-3 0 10303
2 52140  51.6421 250.0678 0000123 123.4567 341.9789 15.56022282100932
1 52140U 22024A   24121.83575472  .00012345  00000+0  12345-3 0 10313
2 52140  51.6421 250.5678 0000123 123.4567 119.2789 15.56026216100967
1 52140U 22024A   24122.18454494  .00012345  00000+0  12345-3 0 10323
2 52140  51.6421 251.0678 0000123 123.4567 256.5789 15.56045849100994
1 52140U 22024A   24122.56303882  .00012345  00000+0  12345-3 0 10330
2 52140  51.6421 251.5678 0000123 123.4567  33.8789 15.56049463101026
1 52140U 22024A   24122.87897527  .00012345  00000+0  12345-3 0 10349
2 52140  51.6421 252.0678 0000123 123.4567 171.1789 15.55600344101051
1 52140U 22024A   24123.14185751  .00012345  00000+0  12345-3 0 10350
2 52140  51.6421 252.5678 0000123 123.4567 308.4789 15.55592514101083
1 52140U 22024A   24123.49653859  .00012345  00000+0  12345-3 0 10368
2 52140  51.6421 253.0678 0000123 123.4567  85.7789 15.55593775101118
1 52140U 22024A   24123.86018503  .00012345  00000+0  12345-3 0 10371
2 52140  51.6421 253.5678 0000123 123.4567 223.0789 15.55585159101140
1 52140U 22024A   24124.21813323  .00012345  00000+0  12345-3 0 10385
2 52140  51.6421 254.0678 0000123 123.4567   0.3789 15.55576190101170
1 52140U 22024A   24124.58364516  .00012345  00000+0  12345-3 0 10391
2 52140  51.6421 254.5678 0000123 123.4567 137.6789 15.55581711101208
1 52140U 22024A   24124.91000706  .00012345  00000+0  12345-3 0 10408
2 52140  51.6421 255.0678 0000123 123.4567 274.9789 15.55576932101231
1 52140U 22024A   24125.27813267  .00012345  00000+0  12345-3 0 10413
2 52140  51.6421 255.5678 0000123 123.4567  52.2789 15.55580978101261
1 52140U 22024A   24125.65367625  .00012345  00000+0  12345-3 0 10428
2 52140  51.6421 256.0678 0000123 123.4567 189.5789 15.55601941101298
1 52140U 22024A   24125.92845855  .00012345  00000+0  12345-3 0 10435
2 52140  51.6421 256.5678 0000123 123.4567 326.8789 15.55604811101322
1 52140U 22024A   24126.31148382  .00012345  00000+0  12345-3 0 10441
2 52140  51.6421 257.0678 0000123 123.4567 104.1789 15.55608130101356
1 52140U 22024A   24126.65806584  .00012345  00000+0  12345-3 0 10454
2 52140  51.6421 257.5678 0000123 123.4567 241.4789 15.55614306101381
1 52140U 22024A   24127.07422650  .00012345  00000+0  12345-3 0 10460
2 52140  51.6421 258.0678 0000123 123.4567  18.7789 15.55607857101419
1 52140U 22024A   24127.46816679  .00012345  00000+0  12345-3 0 10472
2 52140  51.6421 258.5678 0000123 123.4567 156.0789 15.55625068101447
1 52140U 22024A   24127.73898945  .00012345  00000+0  12345-3 0 10489
2 52140  51.6421 259.0678 0000123 123.4567 293.3789 15.55635504101477
1 52140U 22024A   24128.14791125  .00012345  00000+0  12345-3 0 10498
2 52140  51.6421 259.5678 0000123 123.4567  70.6789 15.55675726101502
1 52140U 22024A   24128.49093290  .00012345  00000+0  12345-3 0 10506
2 52140  51.6421 260.0678 0000123 123.4567 207.9789 15.55712526101537
1 52140U 22024A   24128.82060504  .00012345  00000+0  12345-3 0 10516
2 52140  51.6421 260.5678 0000123 123.4567 345.2789 15.55733848101561
1 52140U 22024A   24129.12302702  .00012345  00000+0  12345-3 0 10520
2 52140  51.6421 261.0678 0000123 123.4567 122.5789 15.55753875101598
1 52140U 22024A   24129.49340487  .00012345  00000+0  12345-3 0 10533
2 52140  51.6421 261.5678 0000123 123.4567 259.8789 15.55754083101623
1 52140U 22024A   24129.77921119  .00012345  00000+0  12345-3 0 10542
2 52140  51.6421 262.0678 0000123 123.4567  37.1789 15.55752666101654
1 52140U 22024A   24130.11066152  .00012345  00000+0  12345-3 0 10550
2 52140  51.6421 262.5678 0000123 123.4567 174.4789 15.55775665101681
1 52140U 22024A   24130.38685110  .00012345  00000+0  12345-3 0 10561
2 52140  51.6421 263.0678 0000123 123.4567 311.7789 15.55785732101713
1 52140U 22024A   24130.75361401  .00012345  00000+0  12345-3 0 10577
2 52140  51.6421 263.5678 0000123 123.4567  89.0789 15.55797567101745
1 52140U 22024A   24131.00383256  .00012345  00000+0  12345-3 0 10589
2 52140  51.6421 264.0678 0000123 123.4567 226.3789 15.55802335101770
1 52140U 22024A   24131.39399791  .00012345  00000+0  12345-3 0 10593
2 52140  51.6421 264.5678 0000123 123.4567   3.6789 15.55809875101801
1 52140U 22024A   24131.70402919  .00012345  00000+0  12345-3 0 10607
2 52140  51.6421 265.0678 0000123 123.4567 140.9789 15.55804212101835
1 52140U 22024A   24132.02819910  .00012345  00000+0  12345-3 0 10617
2 52140  51.6421 265.5678 0000123 123.4567 278.2789 15.55808067101860
1 52140U 22024A   24132.28309901  .00012345  00000+0  12345-3 0 10620
2 52140  51.6421 266.0678 0000123 123.4567  55.5789 15.55809687101894
1 52140U 22024A   24132.56584673  .00012345  00000+0  12345-3 0 10633
2 52140  51.6421 266.5678 0000123 123.4567 192.8789 15.55820260101928
1 52140U 22024A   24132.88342197  .00012345  00000+0  12345-3 0 10642
2 52140  51.6421 267.0678 0000123 123.4567 330.1789 15.55836588101954
1 52140U 22024A   24133.14261714  .00012345  00000+0  12345-3 0 10658
2 52140  51.6421 267.5678 0000123 123.4567 107.4789 15.55827795101987
1 52140U 22024A   24133.55333853  .00012345  00000+0  12345-3 0 10668
2 52140  51.6421 268.0678 0000123 123.4567 244.7789 15.55838642102016
1 52140U 22024A   24133.96119937  .00012345  00000+0  12345-3 0 10679
2 52140  51.6421 268.5678 0000123 123.4567  22.0789 15.55857166102043
1 52140U 22024A   24134.23430651  .00012345  00000+0  12345-3 0 10680
2 52140  51.6421 269.0678 0000123 123.4567 159.3789 15.55855616102074
1 52140U 22024A   24134.50544477  .00012345  00000+0  12345-3 0 10693
2 52140  51.6421 269.5678 0000123 123.4567 296.6789 15.55852429102107
1 52140U 22024A   24134.87878768  .00012345  00000+0  12345-3 0 10708
2 52140  51.6421 270.0678 0000123 123.4567  73.9789 15.55856238102135
1 52140U 22024A   24135.18041552  .00012345  00000+0  12345-3 0 10717
2 52140  51.6421 270.5678 0000123 123.4567 211.2789 15.55864559102165
1 52140U 22024A   24135.51181603  .00012345  00000+0  12345-3 0 10727
2 52140  51.6421 271.0678 0000123 123.4567 348.5789 15.55880245102198
1 52140U 22024A   24135.85777786  .00012345  00000+0  12345-3 0 10738
2 52140  51.6421 271.5678 0000123 123.4567 125.8789 15.55878668102229
1 52140U 22024A   24136.15723454  .00012345  00000+0  12345-3 0 10746
2 52140  51.6421 272.0678 0000123 123.4567 263.1789 15.55879305102253
1 52140U 22024A   24136.44402083  .00012345  00000+0  12345-3 0 10751
2 52140  51.6421 272.5678 0000123 123.4567  40.4789 15.55886583102283
1 52140U 22024A   24136.75873269  .00012345  00000+0  12345-3 0 10764
2 52140  51.6421 273.0678 0000123 123.4567 177.7789 15.55890604102316
1 52140U 22024A   24137.13615136  .00012345  00000+0  12345-3 0 10775
2 52140  51.6421 273.5678 0000123 123.4567 315.0789 15.55901498102345
1 52140U 22024A   24137.48057932  .00012345  00000+0  12345-3 0 10788
2 52140  51.6421 274.0678 0000123 123.4567  92.3789 15.55905851102376
1 52140U 22024A   24137.73575877  .00012345  00000+0  12345-3 0 10790
2 52140  51.6421 274.5678 0000123 123.4567 229.6789 15.55042096102403
1 52140U 22024A   24138.14248946  .00012345  00000+0  12345-3 0 10802
2 52140  51.6421 275.0678 0000123 123.4567   6.9789 15.55057790102435
1 52140U 22024A   24138.54153227  .00012345  00000+0  12345-3 0 10814
2 52140  51.6421 275.5678 0000123 123.4567 144.2789 15.55071156102461
1 52140U 22024A   24138.81319753  .00012345  00000+0  12345-3 0 10823
2 52140  51.6421 276.0678 0000123 123.4567 281.5789 15.55080806102497
1 52140U 22024A   24139.22118751  .00012345  00000+0  12345-3 0 10835
2 52140  51.6421 276.5678 0000123 123.4567  58.8789 15.55102726102527
1 52140U 22024A   24139.55151266  .00012345  00000+0  12345-3 0 10840
2 52140  51.6421 277.0678 0000123 123.4567 196.1789 15.55117616102556
1 52140U 22024A   24139.90355943  .00012345  00000+0  12345-3 0 10858
2 52140  51.6421 277.5678 0000123 123.4567 333.4789 15.55129607102583
1 52140U 22024A   24140.31085702  .00012345  00000+0  12345-3 0 10869
2 52140  51.6421 278.0678 0000123 123.4567 110.7789 15.55121887102611
1 52140U 22024A   24140.64246995  .00012345  00000+0  12345-3 0 10879
2 52140  51.6421 278.5678 0000123 123.4567 248.0789 15.55118302102642
1 52140U 22024A   24141.01232637  .00012345  00000+0  12345-3 0 10880
2 52140  51.6421 279.0678 0000123 123.4567  25.3789 15.55108121102675
1 52140U 22024A   24141.38318545  .00012345  00000+0  12345-3 0 10894
2 52140  51.6421 279.5678 0000123 123.4567 162.6789 15.55109458102703
1 52140U 22024A   24141.68252625  .00012345  00000+0  12345-3 0 10905
2 52140  51.6421 280.0678 0000123 123.4567 299.9789 15.55113296102732
1 52140U 22024A   24142.01967904  .00012345  00000+0  12345-3 0 10917
2 52140  51.6421 280.5678 0000123 123.4567  77.2789 15.55112421102766
1 52140U 22024A   24142.37830643  .00012345  00000+0  12345-3 0 10926
2 52140  51.6421 281.0678 0000123 123.4567 214.5789 15.55107081102797
1 52140U 22024A   24142.75715247  .00012345  00000+0  12345-3 0 10931
2 52140  51.6421 281.5678 0000123 123.4567 351.8789 15.55111044102825
1 52140U 22024A   24143.03310682  .00012345  00000+0  12345-3 0 10948
2 52140  51.6421 282.0678 0000123 123.4567 129.1789 15.55114920102856
1 52140U 22024A   24143.31971157  .00012345  00000+0  12345-3 0 10950
2 52140  51.6421 282.5678 0000123 123.4567 266.4789 15.55122822102889
1 52140U 22024A   24143.71856649  .00012345  00000+0  12345-3 0 10963
2 52140  51.6421 283.0678 0000123 123.4567  43.7789 15.55148311102916
1 52140U 22024A   24144.02029699  .00012345  00000+0  12345-3 0 10976
2 52140  51.6421 283.5678 0000123 123.4567 181.0789 15.55153154102941
1 52140U 22024A   24144.27177755  .00012345  00000+0  12345-3 0 10981
2 52140  51.6421 284.0678 0000123 123.4567 318.3789 15.55156145102978
1 52140U 22024A   24144.59229899  .00012345  00000+0  12345-3 0 10994
2 52140  51.6421 284.5678 0000123 123.4567  95.6789 15.55171041103005
1 52140U 22024A   24144.97025022  .00012345  00000+0  12345-3 0 11001
2 52140  51.6421 285.0678 0000123 123.4567 232.9789 15.55187112103036
1 52140U 22024A   24145.36166375  .00012345  00000+0  12345-3 0 11013
2 52140  51.6421 285.5678 0000123 123.4567  10.2789 15.55199215103068
1 52140U 22024A   24145.73118980  .00012345  00000+0  12345-3 0 11024
2 52140  51.6421 286.0678 0000123 123.4567 147.5789 15.55201340103094
1 52140U 22024A   24146.09848607  .00012345  00000+0  12345-3 0 11031
2 52140  51.6421 286.5678 0000123 123.4567 284.8789 15.55193808103127
1 52140U 22024A   24146.45993058  .00012345  00000+0  12345-3 0 11043
2 52140  51.6421 287.0678 0000123 123.4567  62.1789 15.55198808103158
1 52140U 22024A   24146.85820741  .00012345  00000+0  12345-3 0 11056
2 52140  51.6421 287.5678 0000123 123.4567 199.4789 15.55205753103188
1 52140U 22024A   24147.25264743  .00012345  00000+0  12345-3 0 11066
2 52140  51.6421 288.0678 0000123 123.4567 336.7789 15.55213137103219
1 52140U 22024A   24147.57717908  .00012345  00000+0  12345-3 0 11078
2 52140  51.6421 288.5678 0000123 123.4567 114.0789 15.55218725103242
1 52140U 22024A   24147.86108862  .00012345  00000+0  12345-3 0 11084
2 52140  51.6421 289.0678 0000123 123.4567 251.3789 15.55230424103276
1 52140U 22024A   24148.24673037  .00012345  00000+0  12345-3 0 11099
2 52140  51.6421 289.5678 0000123 123.4567  28.6789 15.55218181103306
1 52140U 22024A   24148.53703098  .00012345  00000+0  12345-3 0 11104
2 52140  51.6421 290.0678 0000123 123.4567 165.9789 15.55223280103337
1 52140U 22024A   24148.93712229  .00012345  00000+0  12345-3 0 11115
2 52140  51.6421 290.5678 0000123 123.4567 303.2789 15.55233530103361
1 52140U 22024A   24149.32350251  .00012345  00000+0  12345-3 0 11123
2 52140  51.6421 291.0678 0000123 123.4567  80.5789 15.55242250103394
1 52140U 22024A   24149.71551330  .00012345  00000+0  12345-3 0 11138
2 52140  51.6421 291.5678 0000123 123.4567 217.8789 15.55250942103425
1 52140U 22024A   24150.05536718  .00012345  00000+0  12345-3 0 11141
2 52140  51.6421 292.0678 0000123 123.4567 355.1789 15.55267783103451
1 52140U 22024A   24150.34308437  .00012345  00000+0  12345-3 0 11159
2 52140  51.6421 292.5678 0000123 123.4567 132.4789 15.55265689103488
1 52140U 22024A   24150.68694620  .00012345  00000+0  12345-3 0 11169
2 52140  51.6421 293.0678 0000123 123.4567 269.7789 15.55262492103511
1 52140U 22024A   24151.03945296  .00012345  00000+0  12345-3 0 11178
2 52140  51.6421 293.5678 0000123 123.4567  47.0789 15.55272643103545
1 52140U 22024A   24151.31729901  .00012345  00000+0  12345-3 0 11183
2 52140  51.6421 294.0678 0000123 123.4567 184.3789 15.55279229103576
1 52140U 22024A   24151.57967628  .00012345  00000+0  12345-3 0 11192
2 52140  51.6421 294.5678 0000123 123.4567 321.6789 15.54470231103606
1 52140U 22024A   24151.92757721  .00012345  00000+0  12345-3 0 11204
2 52140  51.6421 295.0678 0000123 123.4567  98.9789 15.54470830103634
1 52140U 22024A   24152.27134832  .00012345  00000+0  12345-3 0 11216
2 52140  51.6421 295.5678 0000123 123.4567 236.2789 15.54457182103664
1 52140U 22024A   24152.52442956  .00012345  00000+0  12345-3 0 11224
2 52140  51.6421 296.0678 0000123 123.4567  13.5789 15.54481871103691
1 52140U 22024A   24152.84234524  .00012345  00000+0  12345-3 0 11230
2 52140  51.6421 296.5678 0000123 123.4567 150.8789 15.54509603103729
1 52140U 22024A   24153.18159048  .00012345  00000+0  12345-3 0 11246
2 52140  51.6421 297.0678 0000123 123.4567 288.1789 15.54546363103757
1 52140U 22024A   24153.44613276  .00012345  00000+0  12345-3 0 11254
2 52140  51.6421 297.5678 0000123 123.4567  65.4789 15.54561278103783
1 52140U 22024A   24153.83107944  .00012345  00000+0  12345-3 0 11268
2 52140  51.6421 298.0678 0000123 123.4567 202.7789 15.54584680103811
1 52140U 22024A   24154.14382555  .00012345  00000+0  12345-3 0 11277
2 52140  51.6421 298.5678 0000123 123.4567 340.0789 15.54585852103847
1 52140U 22024A   24154.53446122  .00012345  00000+0  12345-3 0 11282
2 52140  51.6421 299.0678 0000123 123.4567 117.3789 15.54602072103875
1 52140U 22024A   24154.80515715  .00012345  00000+0  12345-3 0 11298
2 52140  51.6421 299.5678 0000123 123.4567 254.6789 15.54606814103907
1 52140U 22024A   24155.12246465  .00012345  00000+0  12345-3 0 11309
2 52140  51.6421 300.0678 0000123 123.4567  31.9789 15.54606590103935
1 52140U 22024A   24155.38118070  .00012345  00000+0  12345-3 0 11318
2 52140  51.6421 300.5678 0000123 123.4567 169.2789 15.54600700103965
1 52140U 22024A   24155.64866311  .00012345  00000+0  12345-3 0 11326
2 52140  51.6421 301.0678 0000123 123.4567 306.5789 15.54593165103996
1 52140U 22024A   24156.00157809  .00012345  00000+0  12345-3 0 11333
2 52140  51.6421 301.5678 0000123 123.4567  83.8789 15.54601123104025
1 52140U 22024A   24156.29579834  .00012345  00000+0  12345-3 0 11341
2 52140  51.6421 302.0678 0000123 123.4567 221.1789 15.54614157104052
1 52140U 22024A   24156.59071125  .00012345  00000+0  12345-3 0 11355
2 52140  51.6421 302.5678 0000123 123.4567 358.4789 15.54621125104087
1 52140U 22024A   24156.98756497  .00012345  00000+0  12345-3 0 11361
2 52140  51.6421 303.0678 0000123 123.4567 135.7789 15.54615179104115
1 52140U 22024A   24157.36704839  .00012345  00000+0  12345-3 0 11378
2 52140  51.6421 303.5678 0000123 123.4567 273.0789 15.54629242104145
1 52140U 22024A   24157.67480607  .00012345  00000+0  12345-3 0 11387
2 52140  51.6421 304.0678 0000123 123.4567  50.3789 15.54642702104176
1 52140U 22024A   24158.05597371  .00012345  00000+0  12345-3 0 11398
2 52140  51.6421 304.5678 0000123 123.4567 187.6789 15.54646768104205
1 52140U 22024A   24158.39019098  .00012345  00000+0  12345-3 0 11402
2 52140  51.6421 305.0678 0000123 123.4567 324.9789 15.54647238104233
1 52140U 22024A   24158.73124396  .00012345  00000+0  12345-3 0 11419
2 52140  51.6421 305.5678 0000123 123.4567 102.2789 15.54649622104267
1 52140U 22024A   24159.13543348  .00012345  00000+0  12345-3 0 11427
2 52140  51.6421 306.0678 0000123 123.4567 239.5789 15.54663937104295
1 52140U 22024A   24159.50578117  .00012345  00000+0  12345-3 0 11431
2 52140  51.6421 306.5678 0000123 123.4567  16.8789 15.54666271104324
1 52140U 22024A   24159.75800338  .00012345  00000+0  12345-3 0 11442
2 52140  51.6421 307.0678 0000123 123.4567 154.1789 15.54672893104356
1 52140U 22024A   24160.12770888  .00012345  00000+0  12345-3 0 11452
2 52140  51.6421 307.5678 0000123 123.4567 291.4789 15.54683802104381
1 52140U 22024A   24160.39310434  .00012345  00000+0  12345-3 0 11469
2 52140  51.6421 308.0678 0000123 123.4567  68.7789 15.54699736104419
1 52140U 22024A   24160.69329076  .00012345  00000+0  12345-3 0 11475
2 52140  51.6421 308.5678 0000123 123.4567 206.0789 15.54704544104448
1 52140U 22024A   24161.08811457  .00012345  00000+0  12345-3 0 11489
2 52140  51.6421 309.0678 0000123 123.4567 343.3789 15.54723790104476
1 52140U 22024A   24161.45843028  .00012345  00000+0  12345-3 0 11490
2 52140  51.6421 309.5678 0000123 123.4567 120.6789 15.54721196104509
1 52140U 22024A   24161.76247404  .00012345  00000+0  12345-3 0 11502
2 52140  51.6421 310.0678 0000123 123.4567 257.9789 15.54727356104537
